{"type": "FeatureCollection", "features": [{"type": "Feature", "properties": {"name": "study_area", "area_ha": 232.9}, "geometry": {"type": "Polygon", "coordinates": [[[50.06796572826614, 26.59737705277701], [50.0675057609298, 26.60201181962575], [50.06410457064101, 26.60130456506595], [50.06233616847087, 26.600642517429], [50.05910899831844, 26.59989712264362], [50.0535901409501, 26.5989842781709], [50.04964820046877, 26.59764479358089], [50.04497786544647, 26.59920674822341], [50.04019523358549, 26.5996058209173], [50.04024017150087, 26.59647944070704], [50.03946094213312, 26.59434563203077], [50.03684773266419, 26.59164995646402], [50.03733554801813, 26.59018419278105], [50.05065599285749, 26.59184840979355], [50.05372653975703, 26.59158004957774], [50.05629794030064, 26.5914920823359], [50.05974790194209, 26.59103669844261], [50.06232748411118, 26.59275051749483], [50.06319805738129, 26.59470294850779], [50.06495662339688, 26.59570118737094], [50.06544401543542, 26.59691948534233], [50.06796572826614, 26.59737705277701]]]}}]}