{"type": "FeatureCollection", "features": [{"type": "Feature", "properties": {"id": 1, "area_ha": 6.77, "mean_ndvi": 0.76, "mean_nir": 0.36, "mean_swir": 0.15, "decision": ""}, "geometry": {"type": "Polygon", "coordinates": [[[50.06296822395014, 26.596445439142947], [50.06296693624246, 26.596603532594944], [50.06287699947962, 26.59660294051289], [50.06287571163775, 26.59676103395726], [50.062965648524134, 26.596761626043367], [50.06296242918181, 26.59715685964883], [50.06287249198653, 26.59715626755256], [50.06287184804832, 26.597235314268936], [50.06269197354257, 26.597234129901906], [50.062691329478135, 26.597313176613333], [50.06260139216766, 26.597312584342575], [50.06260010390725, 26.597470677758675], [50.062690041341284, 26.597471270033502], [50.06268939726887, 26.597550316742254], [50.06277933476746, 26.597550908962308], [50.06277869075417, 26.59762995567219], [50.062868628317325, 26.59763054783746], [50.06286927226884, 26.597551501125547], [50.063229022302174, 26.597553869210394], [50.06322966600392, 26.59747482248945], [50.06331960345742, 26.597475414366603], [50.06332024709473, 26.597396367642748], [50.06341018448924, 26.597396959461058], [50.06341082806211, 26.597317912734272], [50.06377057742085, 26.597320279431298], [50.063771220743945, 26.5972412326955], [50.06395109531643, 26.597242415699093], [50.063949808914685, 26.597400509177916], [50.06403974632866, 26.597401100598557], [50.06403910318557, 26.59748014733865], [50.0641290406641, 26.597480738704512], [50.06412839758015, 26.597559785445753], [50.06430827266908, 26.5975609680111], [50.06430698674032, 26.59771906149901], [50.0640371737404, 26.597717287553607], [50.06403653058669, 26.59779633429013], [50.06367677971192, 26.597793968226117], [50.063676136308445, 26.597873014953645], [50.063586198534914, 26.597872423293584], [50.0635842681232, 26.598109563464696], [50.06349433016712, 26.598108971741734], [50.063493043089125, 26.59826706518062], [50.063582981168764, 26.598267656907645], [50.06358233768757, 26.598346703627783], [50.06367227583177, 26.598347295300023], [50.063671632409694, 26.598426342021302], [50.06376157061846, 26.59842693363876], [50.063760283889906, 26.598585027082684], [50.063850222225014, 26.598585618647398], [50.06384893560939, 26.598743712091817], [50.06366905869482, 26.598742528897468], [50.06366970212752, 26.59866348217977], [50.06357976373619, 26.598662890499405], [50.063579120241705, 26.598741937215078], [50.06348918179137, 26.59874134547587], [50.06348789467085, 26.59889943890047], [50.06357783324476, 26.59890003064374], [50.06357654623719, 26.59905812406884], [50.06366648493743, 26.59905871575936], [50.06366519804279, 26.59921680918495], [50.06375513686939, 26.599217400822706], [50.06375449347986, 26.5992964475362], [50.06384443237103, 26.599297039119175], [50.06384378904063, 26.599376085833796], [50.06393372799636, 26.599376677361985], [50.06393308472509, 26.599455724077753], [50.06411296276845, 26.59945690696775], [50.06411360591614, 26.59937786024792], [50.06420354488021, 26.599378451605666], [50.064204187963455, 26.599299404882924], [50.064384065776345, 26.59930058742391], [50.06438470873337, 26.59922154069622], [50.0644746475822, 26.599222131879458], [50.064475290474796, 26.599143085148846], [50.06456522926461, 26.59914367627325], [50.064565872092764, 26.59906462953971], [50.064655810823574, 26.599065220605265], [50.06465645358729, 26.598986173868816], [50.06456651491826, 26.598985582805295], [50.06456715774111, 26.59890653606997], [50.06447721913664, 26.598905944951657], [50.06447786201861, 26.598826898217474], [50.064387923478705, 26.598826307044384], [50.06438985229404, 26.59858916684256], [50.064479790648605, 26.598589758009574], [50.06447914777459, 26.598668804746435], [50.064569086193714, 26.598669395858668], [50.06456844337883, 26.59874844259666], [50.064658381862515, 26.5987490336541], [50.06465773910676, 26.598828080393236], [50.06483761620601, 26.598829262341738], [50.064836973571175, 26.598908309084027], [50.0650168508051, 26.598909490809326], [50.065017493316375, 26.598830444062987], [50.06510743187572, 26.598831034838387], [50.065108074322566, 26.598751988089113], [50.0651980128229, 26.598752578805676], [50.06519865520531, 26.598673532053493], [50.065288593646635, 26.59867412271121], [50.0652892359646, 26.598595075956098], [50.06537917434693, 26.598595666554985], [50.06538045885134, 26.59843757303804], [50.06529052059258, 26.598436982443214], [50.0652911629026, 26.59835793568543], [50.065381101099575, 26.598358526278233], [50.06538174334515, 26.59827947951753], [50.065471681483125, 26.598280070051494], [50.06547232366427, 26.598201023287864], [50.06556226174323, 26.598201613762992], [50.06556290385994, 26.59812256699645], [50.0656528418799, 26.598123157412743], [50.06565348393218, 26.598044110643283], [50.06574342189313, 26.59804470100073], [50.065744063880985, 26.597965654228354], [50.06583400178293, 26.597966244526962], [50.06583849519119, 26.59741291708117], [50.06574855772169, 26.597412326796736], [50.065749199688334, 26.59733328001722], [50.06565926228339, 26.597332689678005], [50.065659904309165, 26.597253642899624], [50.06548002963116, 26.597252462054808], [50.06547938748184, 26.597331508829143], [50.06538945008522, 26.59733091831949], [50.065388807871464, 26.597409965090907], [50.065298870415845, 26.59740937452242], [50.065298228137664, 26.597488421290908], [50.06520829062304, 26.59748783066359], [50.06520764828043, 26.597566877429166], [50.064937835567875, 26.597565105200257], [50.06493912062112, 26.597407011680385], [50.06502905806564, 26.59740760247611], [50.0650297005265, 26.597328555712807], [50.06511963791203, 26.59732914644969], [50.065120280308456, 26.597250099683468], [50.06521021763497, 26.597250690361516], [50.06521150229632, 26.59709259682234], [50.06530143950206, 26.597093187439526], [50.06530208176698, 26.597014140666577], [50.065212144623025, 26.59701355005141], [50.06521278694707, 26.596934503279595], [50.06512284986766, 26.59693391260965], [50.065124134631354, 26.59677581906739], [50.06503419767828, 26.59677522834469], [50.06503740984996, 26.59637999448355], [50.064947473208534, 26.596379403714174], [50.06494811569669, 26.5963003569413], [50.06485817911981, 26.596299766117152], [50.0648594642117, 26.59614167257277], [50.06476952776116, 26.596141081695862], [50.064770170364895, 26.596062034924365], [50.0646802339789, 26.596061443992678], [50.06468087664175, 26.595982397222315], [50.06459094032031, 26.595981806235855], [50.06459158304229, 26.595902759466618], [50.064501646785395, 26.59590216842538], [50.0645022895665, 26.59582312165729], [50.064412353374145, 26.595822530561264], [50.06441299621436, 26.595743483794312], [50.064323060086565, 26.595742892643514], [50.06432434588258, 26.595584799110974], [50.06423440988111, 26.595584207907425], [50.06423505283691, 26.59550516114184], [50.06414511689999, 26.595504569883524], [50.0641457599149, 26.595425523119086], [50.06396588817294, 26.59542434043608], [50.063966531308736, 26.5953452936748], [50.06387659550369, 26.595344702250113], [50.063877238698616, 26.595265655489982], [50.063697367220406, 26.59526447247426], [50.063698010536214, 26.595185425717286], [50.06360807486305, 26.595184834126247], [50.063608718237965, 26.595105787370418], [50.06351878262935, 26.595105195724607], [50.06351813919267, 26.5951842424784], [50.063428203525056, 26.595183650773755], [50.06342691652017, 26.595341744274627], [50.06351685231132, 26.59534233598333], [50.06351620886666, 26.59542138273446], [50.06360614472235, 26.595421974388394], [50.0636055013368, 26.595501021140656], [50.06369543725705, 26.595501612739817], [50.06369479393062, 26.595580659493212], [50.063784729915426, 26.5955812510376], [50.06378408664811, 26.59566029779214], [50.063963958749596, 26.595661480714544], [50.06396331560317, 26.595740527472255], [50.064053251719855, 26.595741118850277], [50.064052608632544, 26.595820165609116], [50.06414254481378, 26.595820756932362], [50.06414190178558, 26.595899803692337], [50.064051965542575, 26.595899212367062], [50.064051322449956, 26.595978259124124], [50.06414125875474, 26.595978850451434], [50.064140615721236, 26.596057897209622], [50.06396074299091, 26.596056714494143], [50.06396138614795, 26.595977667740016], [50.06387144984873, 26.595977076299093], [50.063872093064894, 26.59589802954609], [50.06378215683023, 26.595897438050393], [50.063781513552286, 26.595976484801366], [50.06351170467963, 26.59597470996735], [50.06351106121371, 26.596053756711335], [50.06342112486661, 26.596053164984355], [50.06342048133626, 26.596132211725415], [50.06333054493017, 26.596131619939598], [50.063329901335386, 26.596210666677734], [50.0632399648703, 26.596210074833074], [50.063239321211086, 26.59628912156829], [50.06314938468701, 26.596288529664797], [50.06314874096336, 26.596367576397085], [50.06305880438029, 26.59636698443475], [50.06305816059221, 26.596446031164124], [50.06296822395014, 26.596445439142947]], [[50.06432113137264, 26.595980032935618], [50.06441106768575, 26.5959806240925], [50.06441042483757, 26.59605967085678], [50.06450036121524, 26.59606026195889], [50.06449971842617, 26.596139308724307], [50.06458965486839, 26.596139899771632], [50.06458901213845, 26.59621894653818], [50.06440913913325, 26.59621776438267], [50.06440978198673, 26.596138717620168], [50.06431984555007, 26.59613812645923], [50.06432113137264, 26.595980032935618]], [[50.064578085323326, 26.597562741433034], [50.06457937087081, 26.597404647929377], [50.064669308304225, 26.597405238952344], [50.0646680228803, 26.597563332460055], [50.064578085323326, 26.597562741433034]], [[50.06476053103016, 26.597247736403162], [50.06467059371752, 26.59724714544106], [50.06467252181757, 26.597010005167448], [50.06476245894487, 26.597010596123468], [50.06476374420808, 26.59685250259921], [50.06494361822391, 26.596853684332707], [50.06494297571719, 26.596932731099333], [50.064853038646106, 26.59693214025896], [50.06485111092468, 26.59716928054742], [50.06476117367105, 26.597168689644157], [50.06476053103016, 26.597247736403162]]]}}, {"type": "Feature", "properties": {"id": 2, "area_ha": 1.16, "mean_ndvi": 0.75, "mean_nir": 0.42, "mean_swir": 0.22, "decision": ""}, "geometry": {"type": "Polygon", "coordinates": [[[50.060935167881134, 26.592084238220803], [50.06102510106192, 26.592084831436587], [50.06102445599689, 26.592163878167376], [50.061114389242235, 26.59216447132839], [50.0611137442363, 26.59224351806033], [50.06120367754619, 26.59224411116659], [50.061203032599344, 26.59232315789966], [50.06129296597378, 26.592323750951156], [50.06129232108604, 26.59240279768538], [50.06138225452502, 26.59240339068211], [50.06138160969638, 26.59248243741747], [50.061471543199914, 26.592483030359446], [50.06147089843037, 26.59256207709595], [50.06156083199845, 26.592562669983156], [50.061560187288016, 26.5926417167208], [50.06165012092064, 26.59264230955324], [50.0616475422993, 26.592958496503034], [50.061557608419626, 26.592957903662448], [50.06155631896946, 26.593115997127928], [50.06164625297266, 26.593116589972578], [50.06164560830534, 26.593195636706007], [50.061915410516974, 26.59319741490527], [50.06191476603228, 26.59327646164391], [50.062004700170164, 26.59327705426543], [50.06200405574459, 26.593356101005213], [50.062093989947, 26.593356693571966], [50.06209270121139, 26.59351478705292], [50.06218263554013, 26.593515379566945], [50.062181991230105, 26.593594426308115], [50.06227192562339, 26.59359501876737], [50.06227256987165, 26.593515972024168], [50.06245243854305, 26.5935171567682], [50.06245179441832, 26.59359620351547], [50.06254172881996, 26.59359679580432], [50.06254108475433, 26.593675842552738], [50.06263101922051, 26.59367643478682], [50.062630375213985, 26.59375548153637], [50.062720309744726, 26.593756073715674], [50.06272095368948, 26.5936770269641], [50.06281088816123, 26.593677619084577], [50.062811532041565, 26.593598572330066], [50.06272159763158, 26.59359798021162], [50.062722885507796, 26.593439886703987], [50.062632951224124, 26.593439294532807], [50.0626348832038, 26.593202154270767], [50.06254494910821, 26.593201562048876], [50.062546237204884, 26.593043468540447], [50.06245630323561, 26.59304287626583], [50.06245823554597, 26.592805736002596], [50.06236830176476, 26.592805143677275], [50.06236894592465, 26.592726096923112], [50.062279012207995, 26.59272550454302], [50.06227965642699, 26.592646457789996], [50.06209978912554, 26.592645272863486], [50.0621004334654, 26.592566226113647], [50.062010499880614, 26.592565633567226], [50.06201114427959, 26.592486586818517], [50.061921210759344, 26.592485994217334], [50.06192185521741, 26.59240694746977], [50.061831921761716, 26.59240635481382], [50.06183256627888, 26.592327308067393], [50.061652699499376, 26.59232612258917], [50.061653344137405, 26.592247075845926], [50.06156341081359, 26.59224648302365], [50.061564055510715, 26.592167436281546], [50.06147412225145, 26.59216684340451], [50.061474767007674, 26.592087796663545], [50.06138483381295, 26.59208720373175], [50.061385478628274, 26.592008156991923], [50.06120561237071, 26.592006970962007], [50.06120625730689, 26.591927924225367], [50.061116324244054, 26.591927331127252], [50.061116969239336, 26.591848284391755], [50.061027036241036, 26.591847691238872], [50.061026391184, 26.591926737972337], [50.060936458126726, 26.591926144760624], [50.060935167881134, 26.592084238220803]]]}}, {"type": "Feature", "properties": {"id": 3, "area_ha": 0.94, "mean_ndvi": 0.71, "mean_nir": 0.33, "mean_swir": 0.16, "decision": ""}, "geometry": {"type": "Polygon", "coordinates": [[[50.049066625677, 26.591689249332973], [50.04906727894267, 26.5916102028702], [50.048887413947654, 26.59160900129454], [50.04888676055846, 26.591688047753202], [50.048796828003425, 26.59168744687812], [50.04879748145437, 26.591608400421528], [50.04852768399148, 26.591606597461702], [50.04852703035526, 26.591685643912104], [50.048437097811515, 26.591685042809846], [50.048436444110834, 26.591764089257296], [50.04852637671633, 26.591764690361614], [50.04852572307471, 26.591843736810233], [50.04861565574479, 26.59184433785983], [50.04861500216223, 26.59192338430961], [50.0493344641186, 26.591928190678193], [50.04933381102742, 26.592007237143587], [50.049513676668255, 26.592008438171895], [50.04951432963592, 26.591929391702383], [50.04960426239881, 26.59192999212928], [50.049603609492905, 26.59200903860086], [50.04969354232038, 26.592009638973018], [50.04969288947353, 26.592088685445763], [50.04987275526046, 26.592089886023814], [50.04987144980572, 26.592247978974864], [50.049961382826936, 26.592248579182815], [50.04996073015728, 26.592327625659063], [50.050050663243084, 26.59232822581228], [50.050050010632496, 26.592407272289684], [50.050229876936065, 26.59240847242984], [50.050229224446305, 26.59248751891048], [50.050319157664084, 26.59248811889743], [50.05031850523339, 26.592567165379222], [50.05049837180092, 26.59256836518684], [50.05049576254531, 26.592884551121585], [50.050585696080354, 26.592885150948426], [50.05058504382147, 26.592964197431943], [50.050674977421096, 26.592964797204047], [50.050674325221294, 26.593043843688726], [50.05076425888549, 26.593044443406082], [50.05076360674476, 26.593123489891934], [50.05085354047355, 26.59312408955455], [50.05085288839188, 26.593203136041563], [50.05094282218524, 26.59320373564945], [50.05094347420515, 26.593124689160376], [50.05103340793956, 26.5931252887094], [50.05103471184776, 26.592967195724473], [50.050944778236875, 26.59296659617956], [50.05094608225782, 26.592808503195176], [50.05085614877327, 26.59280790359759], [50.05085680084148, 26.592728857106113], [50.05076686742151, 26.592728257453782], [50.050768171673354, 26.592570164472267], [50.050678238379724, 26.592569564767256], [50.05067889056337, 26.592490518277227], [50.05058895733432, 26.592489918517472], [50.05058960957704, 26.592410872028594], [50.050499676412564, 26.592410272214106], [50.05050098101343, 26.592252179237803], [50.0504110479753, 26.592251579370632], [50.050411700333456, 26.5921725328832], [50.050321767359904, 26.59217193296129], [50.050322419777125, 26.592092886475022], [50.050232486868154, 26.59209228649837], [50.050233139344435, 26.592013240013276], [50.05014320650004, 26.592012639981892], [50.050143859035394, 26.591933593497952], [50.049963993478585, 26.591932393268912], [50.04996464613476, 26.591853346788213], [50.04987471342235, 26.591852746590558], [50.049875366137584, 26.591773700111016], [50.049695500844734, 26.591772499549446], [50.04969615368079, 26.591693453073127], [50.049066625677, 26.591689249332973]]]}}, {"type": "Feature", "properties": {"id": 4, "area_ha": 0.84, "mean_ndvi": 0.68, "mean_nir": 0.34, "mean_swir": 0.17, "decision": ""}, "geometry": {"type": "Polygon", "coordinates": [[[50.04610212915787, 26.59127416223376], [50.04484307919528, 26.591265720309973], [50.04484242303781, 26.59134476667921], [50.04475249085713, 26.59134416325663], [50.04475183463518, 26.591423209622903], [50.044841766877624, 26.591423813047562], [50.04484111071473, 26.591502859415012], [50.04493104302176, 26.591503462784942], [50.04493038691791, 26.59158250915357], [50.04502031928954, 26.591583112468783], [50.045019663244744, 26.591662158838595], [50.04510959568097, 26.59166276209907], [50.04510828370675, 26.591820854840144], [50.04519821626933, 26.59182145804797], [50.04519756033992, 26.591900504419236], [50.045287492967084, 26.591901107572333], [50.045286837096725, 26.591980153944796], [50.045646567880766, 26.59198256599751], [50.04564722350409, 26.591903519616782], [50.04573715614543, 26.591904122485907], [50.045737811704285, 26.59182507610222], [50.04582774428669, 26.591825678912482], [50.04582905527277, 26.591667586138293], [50.046098852666425, 26.59166939421588], [50.046098197360024, 26.591748440609628], [50.0462780624268, 26.59174964571484], [50.046278717609695, 26.591670599316963], [50.046368650085576, 26.59167120178232], [50.04637061543274, 26.59143406257711], [50.04628068314213, 26.591433460117962], [50.0462813383142, 26.591354413716502], [50.046101473864994, 26.59135320863197], [50.04610212915787, 26.59127416223376]]]}}, {"type": "Feature", "properties": {"id": 5, "area_ha": 0.55, "mean_ndvi": 0.64, "mean_nir": 0.32, "mean_swir": 0.14, "decision": ""}, "geometry": {"type": "Polygon", "coordinates": [[[50.042185695225214, 26.597176668761488], [50.042005821889916, 26.59717545825811], [50.042005163614114, 26.597254504496085], [50.04191522688896, 26.597253899157103], [50.04191456854866, 26.597332945392104], [50.0420045053356, 26.597333550733158], [50.04200318877041, 26.597491643204638], [50.042093125683735, 26.597492248493047], [50.04209246745884, 26.59757129472953], [50.04245221538772, 26.597573715323342], [50.042452873365505, 26.597494669078557], [50.04254281029306, 26.597495274082913], [50.04254346820635, 26.59741622783516], [50.042633405074966, 26.597416832780628], [50.04263406292376, 26.597337786529906], [50.04272399973345, 26.597338391416486], [50.042724657517745, 26.597259345162804], [50.04299446777851, 26.597261159475476], [50.04299381017953, 26.597340205735392], [50.043263620651196, 26.59734201954301], [50.04326427806485, 26.59726297327687], [50.04335421483264, 26.597263577763727], [50.04335618687197, 26.59702643895372], [50.0432662502895, 26.597025834473094], [50.04326690769229, 26.59694678820338], [50.04290716163794, 26.596944369721097], [50.04290650398806, 26.59702341598251], [50.04254675773206, 26.597020996582998], [50.04254609983235, 26.597100042835212], [50.042186353374746, 26.597097622518465], [50.042185695225214, 26.597176668761488]]]}}, {"type": "Feature", "properties": {"id": 6, "area_ha": 0.49, "mean_ndvi": 0.69, "mean_nir": 0.32, "mean_swir": 0.15, "decision": ""}, "geometry": {"type": "Polygon", "coordinates": [[[50.05056938880035, 26.594861312768455], [50.05065932388236, 26.594861912589963], [50.0506567148084, 26.595178098437618], [50.0507466501403, 26.59517869821055], [50.05074599792684, 26.59525774467229], [50.050925868722636, 26.595258944051857], [50.050925216630034, 26.59533799051682], [50.051015152093925, 26.595338590123454], [50.051015804124766, 26.595259543656432], [50.05119567493747, 26.59526074269517], [50.05119502303017, 26.59533978916631], [50.051284958502514, 26.595340388602526], [50.051284306654296, 26.595419435074824], [50.051554113273546, 26.595421233048825], [50.05155476493645, 26.595342186570356], [50.05164470042006, 26.595342785779362], [50.051645352018504, 26.595263739297938], [50.05155541659666, 26.595263140090996], [50.051556719909016, 26.59510504712959], [50.051646655207314, 26.595105646332428], [50.05164795838537, 26.594947553363337], [50.05155802321061, 26.594946954164612], [50.05155867485737, 26.594867907680797], [50.05137880463983, 26.594866709117056], [50.05137815286954, 26.594945755596765], [50.05119828253973, 26.594944556801693], [50.051198934433565, 26.594865510326105], [50.05092912914528, 26.594863711713643], [50.05092978122173, 26.594784665243324], [50.05074991116717, 26.59478346588845], [50.05075056336446, 26.594704419421355], [50.05066062840318, 26.594703819660776], [50.05065997614412, 26.594782866125815], [50.050570041123876, 26.594782266306368], [50.05056938880035, 26.594861312768455]]]}}, {"type": "Feature", "properties": {"id": 7, "area_ha": 0.27, "mean_ndvi": 0.69, "mean_nir": 0.31, "mean_swir": 0.15, "decision": ""}, "geometry": {"type": "Polygon", "coordinates": [[[50.04922166940604, 26.594694215766268], [50.04922101615868, 26.594773262198345], [50.049131081183575, 26.594772661470053], [50.049130427871745, 26.594851707899185], [50.04922036290862, 26.594852308629537], [50.04921970965587, 26.59493135505983], [50.04930964475734, 26.594931955735444], [50.049308991563656, 26.595011002166913], [50.049398926729715, 26.59501160278778], [50.0493982735951, 26.595090649220413], [50.04957814405923, 26.595091850295862], [50.04957749104546, 26.595170896731727], [50.04966742634353, 26.59517149718631], [50.04966807929553, 26.595092450748382], [50.049758014534646, 26.595093051144097], [50.04975866742218, 26.595014004703224], [50.04984860260235, 26.595014605040074], [50.049849255425414, 26.594935558596237], [50.04993919054663, 26.594936158874233], [50.049939843305246, 26.59485711242745], [50.04984990824579, 26.594856512151527], [50.049850561063465, 26.59477746570591], [50.049760626068604, 26.59477686537524], [50.04976127894536, 26.594697818930797], [50.04967134401508, 26.59469721854538], [50.0496719969509, 26.594618172102102], [50.04949212722236, 26.594616971164978], [50.049491474163005, 26.59469601760414], [50.04922166940604, 26.594694215766268]]]}}, {"type": "Feature", "properties": {"id": 8, "area_ha": 0.23, "mean_ndvi": 0.69, "mean_nir": 0.31, "mean_swir": 0.15, "decision": ""}, "geometry": {"type": "Polygon", "coordinates": [[[50.0437441858183, 26.593629865458247], [50.04374352883834, 26.593708911775842], [50.043653594838865, 26.59370830760953], [50.043652937794434, 26.593787353924146], [50.04374287185568, 26.593787958092527], [50.04374221487029, 26.593867004408338], [50.04383214899614, 26.593867608521997], [50.04383083514077, 26.59402570115506], [50.0437409008914, 26.594025097037264], [50.04374024389787, 26.594104143350375], [50.04365030958957, 26.594103539173705], [50.04364899547086, 26.594261631793124], [50.0437389299027, 26.594262235973943], [50.04373827290104, 26.59434128228439], [50.043828207397475, 26.59434188641048], [50.04382886433737, 26.59426284009797], [50.04391879877488, 26.59426344416519], [50.0439194556503, 26.594184397849702], [50.04400939002888, 26.594185001858058], [50.044010703648034, 26.594026909220265], [50.04392076939298, 26.594026305216065], [50.04392208312482, 26.593868212578855], [50.044012017256335, 26.593868816578908], [50.044012674056425, 26.593789770256883], [50.044102608129016, 26.59379037419806], [50.044103264864624, 26.593711327873084], [50.04419319887829, 26.593711931755397], [50.04419385554942, 26.593632885427443], [50.04410392159752, 26.593632281547205], [50.0441045783277, 26.59355323522044], [50.04383477667432, 26.59355142324514], [50.04383411975884, 26.59363046956569], [50.0437441858183, 26.593629865458247]]]}}, {"type": "Feature", "properties": {"id": 9, "area_ha": 0.19, "mean_ndvi": 0.7, "mean_nir": 0.31, "mean_swir": 0.15, "decision": ""}, "geometry": {"type": "Polygon", "coordinates": [[[50.04787199182853, 26.59476424530964], [50.0479619267641, 26.594764846833176], [50.04796127264928, 26.594843893235492], [50.04814114265243, 26.594845096116277], [50.04814048865845, 26.59492414252182], [50.048230423726025, 26.594924743879073], [50.048231077658244, 26.594845697471467], [50.04859081770976, 26.594848102324192], [50.04859147139219, 26.594769055907435], [50.04868140635037, 26.594769656976545], [50.048682059968336, 26.594690610556835], [50.048592125071934, 26.59469000948979], [50.048592778748976, 26.594610963071244], [50.04796323498564, 26.594606754025875], [50.047962580876224, 26.594685800429975], [50.04787264600242, 26.594685198908504], [50.04787199182853, 26.59476424530964]]]}}, {"type": "Feature", "properties": {"id": 10, "area_ha": 0.18, "mean_ndvi": 0.69, "mean_nir": 0.31, "mean_swir": 0.15, "decision": ""}, "geometry": {"type": "Polygon", "coordinates": [[[50.04258228028212, 26.59275249763702], [50.04249234706072, 26.59275189275722], [50.04249168924595, 26.592830939055585], [50.042401755965635, 26.592830334116908], [50.04240044020441, 26.59298842670681], [50.042310506803425, 26.592987821707183], [50.04230984885697, 26.59306686799872], [50.04239978231973, 26.59306747300042], [50.04239912443232, 26.59314651929314], [50.04257899148988, 26.593147729130298], [50.04257964925376, 26.59306868283343], [50.04275951619917, 26.593069892439246], [50.042760173836804, 26.592990846137337], [50.04285010725201, 26.592991450852967], [50.04285207996334, 26.59275431193564], [50.04276214673342, 26.59275370722623], [50.042762804360194, 26.592674660920746], [50.04258293803242, 26.592673451335685], [50.04258228028212, 26.59275249763702]]]}}, {"type": "Feature", "properties": {"id": 11, "area_ha": 0.16, "mean_ndvi": 0.68, "mean_nir": 0.33, "mean_swir": 0.16, "decision": ""}, "geometry": {"type": "Polygon", "coordinates": [[[50.057471731800995, 26.597673963955028], [50.057561669261304, 26.59767455947417], [50.05756102165952, 26.597753606064085], [50.05765095918441, 26.597754201528463], [50.057650311641716, 26.59783324811953], [50.05783018682346, 26.59783443888194], [50.05782953940165, 26.5979134854762], [50.0579194770585, 26.59791408077423], [50.05792012441852, 26.597835034177923], [50.058010062016386, 26.597835629417098], [50.05801070931196, 26.59775658281785], [50.05810064685084, 26.597757177998172], [50.058101294081965, 26.597678131396002], [50.05801135660486, 26.597677536217724], [50.05801200389509, 26.597598489616693], [50.05792206648256, 26.59759789438365], [50.05792271383189, 26.597518847783775], [50.05756296445687, 26.59751646629165], [50.057562316860434, 26.597595512883355], [50.05747237946189, 26.597594917366255], [50.057471731800995, 26.597673963955028]]]}}, {"type": "Feature", "properties": {"id": 12, "area_ha": 0.15, "mean_ndvi": 0.62, "mean_nir": 0.34, "mean_swir": 0.14, "decision": ""}, "geometry": {"type": "Polygon", "coordinates": [[[50.041364408141625, 26.598594051591906], [50.04127447038615, 26.59859344581994], [50.04127381156718, 26.59867249202522], [50.041183873752765, 26.598671886194346], [50.041183214869285, 26.598750932396644], [50.041273152745475, 26.598751538229592], [50.04127249392106, 26.59883058443308], [50.04136243186188, 26.598831190211293], [50.04136177309652, 26.598910236415964], [50.04145171110196, 26.598910842139436], [50.04145105239567, 26.598989888345304], [50.04154099046574, 26.59899049401404], [50.04154164911026, 26.5989114478061], [50.04163158712139, 26.598912053415955], [50.04163422142512, 26.598595868566964], [50.0415442836611, 26.598595262965425], [50.04154494229202, 26.59851621675302], [50.0413650668961, 26.59851500538366], [50.041364408141625, 26.598594051591906]]]}}, {"type": "Feature", "properties": {"id": 13, "area_ha": 0.13, "mean_ndvi": 0.63, "mean_nir": 0.31, "mean_swir": 0.14, "decision": ""}, "geometry": {"type": "Polygon", "coordinates": [[[50.044338266011145, 26.597902593672792], [50.04442820330721, 26.59790319749451], [50.04442754667496, 26.597982243780457], [50.044787296134736, 26.597984658507503], [50.044786639746896, 26.598063704800836], [50.04487657718071, 26.598064308342646], [50.044877233506774, 26.59798526204724], [50.04496717088164, 26.597985865530163], [50.04496782714322, 26.597906819231792], [50.044877889830126, 26.597906215750935], [50.04487854615077, 26.597827169453744], [50.044698671656654, 26.597825962325746], [50.04469932809814, 26.597746916031802], [50.044429516563575, 26.597745104919944], [50.04442885993675, 26.59782415120767], [50.04433892270246, 26.59782354738803], [50.044338266011145, 26.597902593672792]]]}}]}