{"type": "FeatureCollection", "features": [{"type": "Feature", "properties": {"pid": 1, "second_review": 1, "cls": "", "cls2": "", "note": ""}, "geometry": {"type": "Point", "coordinates": [50.05377346283555, 26.593499257154722]}}, {"type": "Feature", "properties": {"pid": 2, "second_review": 0, "cls": "", "cls2": "", "note": ""}, "geometry": {"type": "Point", "coordinates": [50.03975961015333, 26.59150819988302]}}, {"type": "Feature", "properties": {"pid": 3, "second_review": 0, "cls": "", "cls2": "", "note": ""}, "geometry": {"type": "Point", "coordinates": [50.06381072131754, 26.597913425702167]}}, {"type": "Feature", "properties": {"pid": 4, "second_review": 0, "cls": "", "cls2": "", "note": ""}, "geometry": {"type": "Point", "coordinates": [50.058324520090245, 26.59787723560968]}}, {"type": "Feature", "properties": {"pid": 5, "second_review": 1, "cls": "", "cls2": "", "note": ""}, "geometry": {"type": "Point", "coordinates": [50.06204418980039, 26.593949247823247]}}, {"type": "Feature", "properties": {"pid": 6, "second_review": 1, "cls": "", "cls2": "", "note": ""}, "geometry": {"type": "Point", "coordinates": [50.05402311696374, 26.59595149311004]}}, {"type": "Feature", "properties": {"pid": 7, "second_review": 0, "cls": "", "cls2": "", "note": ""}, "geometry": {"type": "Point", "coordinates": [50.066598794760885, 26.597931736375227]}}, {"type": "Feature", "properties": {"pid": 8, "second_review": 0, "cls": "", "cls2": "", "note": ""}, "geometry": {"type": "Point", "coordinates": [50.05232410008504, 26.594754429288212]}}, {"type": "Feature", "properties": {"pid": 9, "second_review": 0, "cls": "", "cls2": "", "note": ""}, "geometry": {"type": "Point", "coordinates": [50.06262478209211, 26.599960944768032]}}, {"type": "Feature", "properties": {"pid": 10, "second_review": 1, "cls": "", "cls2": "", "note": ""}, "geometry": {"type": "Point", "coordinates": [50.06155324866505, 26.59900527267888]}}, {"type": "Feature", "properties": {"pid": 11, "second_review": 0, "cls": "", "cls2": "", "note": ""}, "geometry": {"type": "Point", "coordinates": [50.05204713048829, 26.59562214422722]}}, {"type": "Feature", "properties": {"pid": 12, "second_review": 0, "cls": "", "cls2": "", "note": ""}, "geometry": {"type": "Point", "coordinates": [50.05810259764962, 26.592025999518054]}}, {"type": "Feature", "properties": {"pid": 13, "second_review": 0, "cls": "", "cls2": "", "note": ""}, "geometry": {"type": "Point", "coordinates": [50.0598145557523, 26.591642061347216]}}, {"type": "Feature", "properties": {"pid": 14, "second_review": 0, "cls": "", "cls2": "", "note": ""}, "geometry": {"type": "Point", "coordinates": [50.041357315003296, 26.59404859034784]}}, {"type": "Feature", "properties": {"pid": 15, "second_review": 1, "cls": "", "cls2": "", "note": ""}, "geometry": {"type": "Point", "coordinates": [50.0639957423773, 26.59728223478503]}}, {"type": "Feature", "properties": {"pid": 16, "second_review": 1, "cls": "", "cls2": "", "note": ""}, "geometry": {"type": "Point", "coordinates": [50.051693251751196, 26.594908329698054]}}, {"type": "Feature", "properties": {"pid": 17, "second_review": 0, "cls": "", "cls2": "", "note": ""}, "geometry": {"type": "Point", "coordinates": [50.04216343254412, 26.594449270292472]}}, {"type": "Feature", "properties": {"pid": 18, "second_review": 0, "cls": "", "cls2": "", "note": ""}, "geometry": {"type": "Point", "coordinates": [50.039128764812084, 26.591662044701312]}}, {"type": "Feature", "properties": {"pid": 19, "second_review": 0, "cls": "", "cls2": "", "note": ""}, "geometry": {"type": "Point", "coordinates": [50.05738313325448, 26.592021237442427]}}, {"type": "Feature", "properties": {"pid": 20, "second_review": 0, "cls": "", "cls2": "", "note": ""}, "geometry": {"type": "Point", "coordinates": [50.05679817312318, 26.59755092589012]}}, {"type": "Feature", "properties": {"pid": 21, "second_review": 0, "cls": "", "cls2": "", "note": ""}, "geometry": {"type": "Point", "coordinates": [50.061504581856504, 26.593945691308782]}}, {"type": "Feature", "properties": {"pid": 22, "second_review": 0, "cls": "", "cls2": "", "note": ""}, "geometry": {"type": "Point", "coordinates": [50.057271827122165, 26.594629180793415]}}, {"type": "Feature", "properties": {"pid": 23, "second_review": 0, "cls": "", "cls2": "", "note": ""}, "geometry": {"type": "Point", "coordinates": [50.06308671220765, 26.598462018476692]}}, {"type": "Feature", "properties": {"pid": 24, "second_review": 1, "cls": "", "cls2": "", "note": ""}, "geometry": {"type": "Point", "coordinates": [50.04775704334447, 26.59235242737582]}}, {"type": "Feature", "properties": {"pid": 25, "second_review": 0, "cls": "", "cls2": "", "note": ""}, "geometry": {"type": "Point", "coordinates": [50.047554929189744, 26.59503880190162]}}, {"type": "Feature", "properties": {"pid": 26, "second_review": 0, "cls": "", "cls2": "", "note": ""}, "geometry": {"type": "Point", "coordinates": [50.0435997570945, 26.59477513066312]}}, {"type": "Feature", "properties": {"pid": 27, "second_review": 0, "cls": "", "cls2": "", "note": ""}, "geometry": {"type": "Point", "coordinates": [50.041048637548755, 26.59871050044123]}}, {"type": "Feature", "properties": {"pid": 28, "second_review": 1, "cls": "", "cls2": "", "note": ""}, "geometry": {"type": "Point", "coordinates": [50.0441426497945, 26.594383523564062]}}, {"type": "Feature", "properties": {"pid": 29, "second_review": 0, "cls": "", "cls2": "", "note": ""}, "geometry": {"type": "Point", "coordinates": [50.045824526599006, 26.597635887346318]}}, {"type": "Feature", "properties": {"pid": 30, "second_review": 0, "cls": "", "cls2": "", "note": ""}, "geometry": {"type": "Point", "coordinates": [50.04195986609682, 26.597293724951825]}}, {"type": "Feature", "properties": {"pid": 31, "second_review": 0, "cls": "", "cls2": "", "note": ""}, "geometry": {"type": "Point", "coordinates": [50.05062707556163, 26.593320206494486]}}, {"type": "Feature", "properties": {"pid": 32, "second_review": 1, "cls": "", "cls2": "", "note": ""}, "geometry": {"type": "Point", "coordinates": [50.05259715984783, 26.59436099269267]}}, {"type": "Feature", "properties": {"pid": 33, "second_review": 0, "cls": "", "cls2": "", "note": ""}, "geometry": {"type": "Point", "coordinates": [50.05969684486648, 26.595040474934798]}}, {"type": "Feature", "properties": {"pid": 34, "second_review": 0, "cls": "", "cls2": "", "note": ""}, "geometry": {"type": "Point", "coordinates": [50.06053079130345, 26.59204204468678]}}, {"type": "Feature", "properties": {"pid": 35, "second_review": 0, "cls": "", "cls2": "", "note": ""}, "geometry": {"type": "Point", "coordinates": [50.053310133508546, 26.59515624459953]}}, {"type": "Feature", "properties": {"pid": 36, "second_review": 0, "cls": "", "cls2": "", "note": ""}, "geometry": {"type": "Point", "coordinates": [50.06092755041428, 26.598526840384515]}}, {"type": "Feature", "properties": {"pid": 37, "second_review": 0, "cls": "", "cls2": "", "note": ""}, "geometry": {"type": "Point", "coordinates": [50.06605660033767, 26.598244383749158]}}, {"type": "Feature", "properties": {"pid": 38, "second_review": 0, "cls": "", "cls2": "", "note": ""}, "geometry": {"type": "Point", "coordinates": [50.05959334027961, 26.596699860612198]}}, {"type": "Feature", "properties": {"pid": 39, "second_review": 0, "cls": "", "cls2": "", "note": ""}, "geometry": {"type": "Point", "coordinates": [50.043864306109626, 26.595409313597795]}}, {"type": "Feature", "properties": {"pid": 40, "second_review": 0, "cls": "", "cls2": "", "note": ""}, "geometry": {"type": "Point", "coordinates": [50.047184059244515, 26.596380182781665]}}, {"type": "Feature", "properties": {"pid": 41, "second_review": 0, "cls": "", "cls2": "", "note": ""}, "geometry": {"type": "Point", "coordinates": [50.049180948191854, 26.594180113586642]}}, {"type": "Feature", "properties": {"pid": 42, "second_review": 0, "cls": "", "cls2": "", "note": ""}, "geometry": {"type": "Point", "coordinates": [50.05493546410129, 26.59437653601388]}}, {"type": "Feature", "properties": {"pid": 43, "second_review": 0, "cls": "", "cls2": "", "note": ""}, "geometry": {"type": "Point", "coordinates": [50.059934354220445, 26.59899458954288]}}, {"type": "Feature", "properties": {"pid": 44, "second_review": 0, "cls": "", "cls2": "", "note": ""}, "geometry": {"type": "Point", "coordinates": [50.06157839755426, 26.595922452011592]}}, {"type": "Feature", "properties": {"pid": 45, "second_review": 0, "cls": "", "cls2": "", "note": ""}, "geometry": {"type": "Point", "coordinates": [50.042674097627696, 26.597930935846737]}}, {"type": "Feature", "properties": {"pid": 46, "second_review": 0, "cls": "", "cls2": "", "note": ""}, "geometry": {"type": "Point", "coordinates": [50.03929542944848, 26.593244183170125]}}, {"type": "Feature", "properties": {"pid": 47, "second_review": 0, "cls": "", "cls2": "", "note": ""}, "geometry": {"type": "Point", "coordinates": [50.05392798049829, 26.59658326757557]}}, {"type": "Feature", "properties": {"pid": 48, "second_review": 0, "cls": "", "cls2": "", "note": ""}, "geometry": {"type": "Point", "coordinates": [50.055490646857535, 26.59248299931995]}}, {"type": "Feature", "properties": {"pid": 49, "second_review": 0, "cls": "", "cls2": "", "note": ""}, "geometry": {"type": "Point", "coordinates": [50.04277718986186, 26.59635061559018]}}, {"type": "Feature", "properties": {"pid": 50, "second_review": 0, "cls": "", "cls2": "", "note": ""}, "geometry": {"type": "Point", "coordinates": [50.038134884439906, 26.592208687603236]}}, {"type": "Feature", "properties": {"pid": 51, "second_review": 0, "cls": "", "cls2": "", "note": ""}, "geometry": {"type": "Point", "coordinates": [50.044075701182564, 26.591616298000616]}}, {"type": "Feature", "properties": {"pid": 52, "second_review": 1, "cls": "", "cls2": "", "note": ""}, "geometry": {"type": "Point", "coordinates": [50.05403416628679, 26.594607701993237]}}, {"type": "Feature", "properties": {"pid": 53, "second_review": 0, "cls": "", "cls2": "", "note": ""}, "geometry": {"type": "Point", "coordinates": [50.0405399968564, 26.59499169198374]}}, {"type": "Feature", "properties": {"pid": 54, "second_review": 0, "cls": "", "cls2": "", "note": ""}, "geometry": {"type": "Point", "coordinates": [50.060317999765694, 26.596072238951834]}}, {"type": "Feature", "properties": {"pid": 55, "second_review": 1, "cls": "", "cls2": "", "note": ""}, "geometry": {"type": "Point", "coordinates": [50.06606109272971, 26.597691056289783]}}, {"type": "Feature", "properties": {"pid": 56, "second_review": 0, "cls": "", "cls2": "", "note": ""}, "geometry": {"type": "Point", "coordinates": [50.056786506501496, 26.59897376408343]}}, {"type": "Feature", "properties": {"pid": 57, "second_review": 1, "cls": "", "cls2": "", "note": ""}, "geometry": {"type": "Point", "coordinates": [50.04531245495904, 26.59431232311709]}}, {"type": "Feature", "properties": {"pid": 58, "second_review": 0, "cls": "", "cls2": "", "note": ""}, "geometry": {"type": "Point", "coordinates": [50.04485425121215, 26.595336908906923]}}, {"type": "Feature", "properties": {"pid": 59, "second_review": 0, "cls": "", "cls2": "", "note": ""}, "geometry": {"type": "Point", "coordinates": [50.04069415991218, 26.598075706649098]}}, {"type": "Feature", "properties": {"pid": 60, "second_review": 0, "cls": "", "cls2": "", "note": ""}, "geometry": {"type": "Point", "coordinates": [50.03922265722935, 26.591188374257015]}}, {"type": "Feature", "properties": {"pid": 61, "second_review": 0, "cls": "", "cls2": "", "note": ""}, "geometry": {"type": "Point", "coordinates": [50.06158355580015, 26.59529007837359]}}, {"type": "Feature", "properties": {"pid": 62, "second_review": 0, "cls": "", "cls2": "", "note": ""}, "geometry": {"type": "Point", "coordinates": [50.05349325587972, 26.594762208097364]}}, {"type": "Feature", "properties": {"pid": 63, "second_review": 0, "cls": "", "cls2": "", "note": ""}, "geometry": {"type": "Point", "coordinates": [50.042264553136974, 26.59310608862148]}}, {"type": "Feature", "properties": {"pid": 64, "second_review": 0, "cls": "", "cls2": "", "note": ""}, "geometry": {"type": "Point", "coordinates": [50.063368755579425, 26.596961906556224]}}, {"type": "Feature", "properties": {"pid": 65, "second_review": 0, "cls": "", "cls2": "", "note": ""}, "geometry": {"type": "Point", "coordinates": [50.047202389614604, 26.59416688415838]}}, {"type": "Feature", "properties": {"pid": 66, "second_review": 0, "cls": "", "cls2": "", "note": ""}, "geometry": {"type": "Point", "coordinates": [50.05500397221258, 26.596985669361242]}}, {"type": "Feature", "properties": {"pid": 67, "second_review": 1, "cls": "", "cls2": "", "note": ""}, "geometry": {"type": "Point", "coordinates": [50.04515423392304, 26.59170258689413]}}, {"type": "Feature", "properties": {"pid": 68, "second_review": 0, "cls": "", "cls2": "", "note": ""}, "geometry": {"type": "Point", "coordinates": [50.044115721731664, 26.5976244218875]}}, {"type": "Feature", "properties": {"pid": 69, "second_review": 0, "cls": "", "cls2": "", "note": ""}, "geometry": {"type": "Point", "coordinates": [50.0567516580556, 26.59225420754471]}}, {"type": "Feature", "properties": {"pid": 70, "second_review": 0, "cls": "", "cls2": "", "note": ""}, "geometry": {"type": "Point", "coordinates": [50.05699100724421, 26.595971185970733]}}, {"type": "Feature", "properties": {"pid": 71, "second_review": 0, "cls": "", "cls2": "", "note": ""}, "geometry": {"type": "Point", "coordinates": [50.05090209357017, 26.592689633664392]}}, {"type": "Feature", "properties": {"pid": 72, "second_review": 1, "cls": "", "cls2": "", "note": ""}, "geometry": {"type": "Point", "coordinates": [50.052668869574866, 26.596574893314187]}}, {"type": "Feature", "properties": {"pid": 73, "second_review": 1, "cls": "", "cls2": "", "note": ""}, "geometry": {"type": "Point", "coordinates": [50.05115690051168, 26.594509501446243]}}, {"type": "Feature", "properties": {"pid": 74, "second_review": 0, "cls": "", "cls2": "", "note": ""}, "geometry": {"type": "Point", "coordinates": [50.05573449711966, 26.59564665270136]}}, {"type": "Feature", "properties": {"pid": 75, "second_review": 0, "cls": "", "cls2": "", "note": ""}, "geometry": {"type": "Point", "coordinates": [50.04847389301645, 26.59267342390991]}}, {"type": "Feature", "properties": {"pid": 76, "second_review": 0, "cls": "", "cls2": "", "note": ""}, "geometry": {"type": "Point", "coordinates": [50.038579263931645, 26.59284409482439]}}, {"type": "Feature", "properties": {"pid": 77, "second_review": 0, "cls": "", "cls2": "", "note": ""}, "geometry": {"type": "Point", "coordinates": [50.043881385814394, 26.593354109468645]}}, {"type": "Feature", "properties": {"pid": 78, "second_review": 1, "cls": "", "cls2": "", "note": ""}, "geometry": {"type": "Point", "coordinates": [50.065679512166774, 26.600376285182847]}}, {"type": "Feature", "properties": {"pid": 79, "second_review": 0, "cls": "", "cls2": "", "note": ""}, "geometry": {"type": "Point", "coordinates": [50.050437422034214, 26.59450470385717]}}, {"type": "Feature", "properties": {"pid": 80, "second_review": 0, "cls": "", "cls2": "", "note": ""}, "geometry": {"type": "Point", "coordinates": [50.05323711053356, 26.59310043664677]}}]}